[{"OBJECT_NAME":"THEOS","OBJECT_ID":"2008-049A","EPOCH":"2026-03-09T23:28:13.334304","MEAN_MOTION":14.20116597,"ECCENTRICITY":0.00010425,"INCLINATION":98.5696,"RA_OF_ASC_NODE":129.4305,"ARG_OF_PERICENTER":90.3146,"MEAN_ANOMALY":269.8151,"EPHEMERIS_TYPE":0,"CLASSIFICATION_TYPE":"U","NORAD_CAT_ID":33396,"ELEMENT_SET_NO":999,"REV_AT_EPOCH":90388,"BSTAR":-7.5504934e-5,"MEAN_MOTION_DOT":-2.03e-6,"MEAN_MOTION_DDOT":0},{"OBJECT_NAME":"FENGYUN 1C DEB","OBJECT_ID":"1999-025CRX","EPOCH":"2026-03-09T06:54:58.470336","MEAN_MOTION":14.29855487,"ECCENTRICITY":0.00702643,"INCLINATION":99.0593,"RA_OF_ASC_NODE":195.0683,"ARG_OF_PERICENTER":144.4937,"MEAN_ANOMALY":246.4993,"EPHEMERIS_TYPE":0,"CLASSIFICATION_TYPE":"U","NORAD_CAT_ID":32129,"ELEMENT_SET_NO":999,"REV_AT_EPOCH":95463,"BSTAR":0.0034125635,"MEAN_MOTION_DOT":8.981e-5,"MEAN_MOTION_DDOT":0}]
